prediction:
  azimuth_start: 28
  azimuth_stop: 151
  azimuth_tca: null
  max_elevation: 16
  tca: null
  time_start: 2020-04-28 07:29:00
  time_stop: 2020-04-28 07:42:00
satellite:
  name: Delfi-C3
  noradid: '32789'
  tle:
    line1: 1 32789U 08021G   20118.36335975 +.00000933 +00000-0 +65110-4 0  9995
    line2: 2 32789 097.4234 162.9406 0013566 126.9500 233.2973 15.07625025654111
station:
  name: DopTrack
  position:
    altitude: 95
    latitude: 51.9989
    longitude: 4.3733585
tracking:
  epoch: 2020-04-28 07:29:03.102276
  fca: 145867801.2822337
  fca_error: 0.3720705901279742
  tca: 2020-04-28 07:35:25.464855
  tca_error: 0.03272253761759412
